{
  "norad_id": 25118,
  "name": "ORBCOMM FM06",
  "history": [
    {
      "epoch": "2026-03-28T16:29:14.513856",
      "apogee_km": 736.2946249969682,
      "perigee_km": 732.4338170841629,
      "latitude_deg": -44.86462344200059,
      "longitude_deg": -2.2505401601083577,
      "semi_major_axis_km": 7112.501221040565,
      "eccentricity": 0.00027141,
      "inclination_deg": 45.014,
      "raan_deg": 80.1792,
      "arg_perigee_deg": 274.661,
      "mean_anomaly_deg": 255.2153,
      "mean_motion_rev_day": 14.47335555
    }
  ]
}